{
  "type": "FeatureCollection",
  "features": [
    {
      "type": "Feature",
      "properties": {
        "norad_id": 66541,
        "name": "STARLINK-35796",
        "group": "last-30-days",
        "lat": -42.971423793842646,
        "lon": -4.711336608184764,
        "alt_km": 382.1501894281755,
        "timestamp": "2025-12-07T03:52:31.203949+00:00",
        "meta_object_name": "STARLINK-35796",
        "meta_object_id": "2025-265AB",
        "meta_epoch": "2025-12-06T14:00:01.999872",
        "meta_mean_motion": 15.65136822,
        "meta_eccentricity": 0.00013215,
        "meta_inclination": 43.0004,
        "meta_ra_of_asc_node": 90.1214,
        "meta_arg_of_pericenter": 275.6231,
        "meta_mean_anomaly": 334.6612,
        "meta_ephemeris_type": 0,
        "meta_classification_type": "U",
        "meta_norad_cat_id": 66541,
        "meta_element_set_no": 999,
        "meta_rev_at_epoch": 400,
        "meta_bstar": -0.022240758,
        "meta_mean_motion_dot": -0.0198869,
        "meta_mean_motion_ddot": 0,
        "tle_line1": "1 66541U 25265AB  25340.58335648 -.01988690  00000+0 -22241-1 0  9992",
        "tle_line2": "2 66541  43.0004  90.1214 0001321 275.6231 334.6612 15.65136822  4003"
      },
      "geometry": {
        "type": "Point",
        "coordinates": [
          -4.711336608184764,
          -42.971423793842646
        ]
      }
    },
    {
      "type": "Feature",
      "properties": {
        "norad_id": 66542,
        "name": "STARLINK-35833",
        "group": "last-30-days",
        "lat": -42.97311917753503,
        "lon": -2.099701748870754,
        "alt_km": 382.17019319730935,
        "timestamp": "2025-12-07T03:52:31.203959+00:00",
        "meta_object_name": "STARLINK-35833",
        "meta_object_id": "2025-265AC",
        "meta_epoch": "2025-12-06T14:00:01.999872",
        "meta_mean_motion": 15.65136019,
        "meta_eccentricity": 0.00012896,
        "meta_inclination": 43.0004,
        "meta_ra_of_asc_node": 90.1168,
        "meta_arg_of_pericenter": 276.2798,
        "meta_mean_anomaly": 335.9227,
        "meta_ephemeris_type": 0,
        "meta_classification_type": "U",
        "meta_norad_cat_id": 66542,
        "meta_element_set_no": 999,
        "meta_rev_at_epoch": 400,
        "meta_bstar": -0.022239069,
        "meta_mean_motion_dot": -0.01988476,
        "meta_mean_motion_ddot": 0,
        "tle_line1": "1 66542U 25265AC  25340.58335648 -.01988476  00000+0 -22239-1 0  9992",
        "tle_line2": "2 66542  43.0004  90.1168 0001289 276.2798 335.9227 15.65136019  4004"
      },
      "geometry": {
        "type": "Point",
        "coordinates": [
          -2.099701748870754,
          -42.97311917753503
        ]
      }
    },
    {
      "type": "Feature",
      "properties": {
        "norad_id": 66543,
        "name": "STARLINK-35315",
        "group": "last-30-days",
        "lat": -42.91517728854706,
        "lon": 0.5115694648956789,
        "alt_km": 382.1963279389829,
        "timestamp": "2025-12-07T03:52:31.203972+00:00",
        "meta_object_name": "STARLINK-35315",
        "meta_object_id": "2025-265AD",
        "meta_epoch": "2025-12-06T14:00:01.999872",
        "meta_mean_motion": 15.65135923,
        "meta_eccentricity": 0.00012251,
        "meta_inclination": 43.0004,
        "meta_ra_of_asc_node": 90.1115,
        "meta_arg_of_pericenter": 274.5946,
        "meta_mean_anomaly": 339.5245,
        "meta_ephemeris_type": 0,
        "meta_classification_type": "U",
        "meta_norad_cat_id": 66543,
        "meta_element_set_no": 999,
        "meta_rev_at_epoch": 389,
        "meta_bstar": -0.022226942,
        "meta_mean_motion_dot": -0.01987468,
        "meta_mean_motion_ddot": 0,
        "tle_line1": "1 66543U 25265AD  25340.58335648 -.01987468  00000+0 -22227-1 0  9990",
        "tle_line2": "2 66543  43.0004  90.1115 0001225 274.5946 339.5245 15.65135923  3892"
      },
      "geometry": {
        "type": "Point",
        "coordinates": [
          0.5115694648956789,
          -42.91517728854706
        ]
      }
    },
    {
      "type": "Feature",
      "properties": {
        "norad_id": 66544,
        "name": "STARLINK-35728",
        "group": "last-30-days",
        "lat": -42.79783902314568,
        "lon": 3.111928791473888,
        "alt_km": 382.10077884338716,
        "timestamp": "2025-12-07T03:52:31.203985+00:00",
        "meta_object_name": "STARLINK-35728",
        "meta_object_id": "2025-265AE",
        "meta_epoch": "2025-12-06T14:00:01.999872",
        "meta_mean_motion": 15.6513518,
        "meta_eccentricity": 0.00013579,
        "meta_inclination": 43.0002,
        "meta_ra_of_asc_node": 90.107,
        "meta_arg_of_pericenter": 276.7542,
        "meta_mean_anomaly": 339.2818,
        "meta_ephemeris_type": 0,
        "meta_classification_type": "U",
        "meta_norad_cat_id": 66544,
        "meta_element_set_no": 999,
        "meta_rev_at_epoch": 400,
        "meta_bstar": -0.022216818,
        "meta_mean_motion_dot": -0.0198672,
        "meta_mean_motion_ddot": 0,
        "tle_line1": "1 66544U 25265AE  25340.58335648 -.01986720  00000+0 -22217-1 0  9990",
        "tle_line2": "2 66544  43.0002  90.1070 0001357 276.7542 339.2818 15.65135180  4005"
      },
      "geometry": {
        "type": "Point",
        "coordinates": [
          3.111928791473888,
          -42.79783902314568
        ]
      }
    },
    {
      "type": "Feature",
      "properties": {
        "norad_id": 66545,
        "name": "SHIJIAN-30A",
        "group": "last-30-days",
        "lat": 38.34416547117953,
        "lon": 37.52113387736238,
        "alt_km": 512.2119601806226,
        "timestamp": "2025-12-07T03:52:31.203996+00:00",
        "meta_object_name": "SHIJIAN-30A",
        "meta_object_id": "2025-266A",
        "meta_epoch": "2025-12-06T13:24:09.426816",
        "meta_mean_motion": 15.1546282,
        "meta_eccentricity": 0.0012813,
        "meta_inclination": 51.7998,
        "meta_ra_of_asc_node": 1.8189,
        "meta_arg_of_pericenter": 334.3439,
        "meta_mean_anomaly": 25.6901,
        "meta_ephemeris_type": 0,
        "meta_classification_type": "U",
        "meta_norad_cat_id": 66545,
        "meta_element_set_no": 999,
        "meta_rev_at_epoch": 264,
        "meta_bstar": 0.00093337,
        "meta_mean_motion_dot": 0.00017647,
        "meta_mean_motion_ddot": 0,
        "tle_line1": "1 66545U 25266A   25340.55844244  .00017647  00000+0  93337-3 0  9999",
        "tle_line2": "2 66545  51.7998   1.8189 0012813 334.3439  25.6901 15.15462820  2647"
      },
      "geometry": {
        "type": "Point",
        "coordinates": [
          37.52113387736238,
          38.34416547117953
        ]
      }
    },
    {
      "type": "Feature",
      "properties": {
        "norad_id": 66546,
        "name": "SHIJIAN-30B",
        "group": "last-30-days",
        "lat": 35.54451799654773,
        "lon": 33.24033579843117,
        "alt_km": 511.8775428359286,
        "timestamp": "2025-12-07T03:52:31.204006+00:00",
        "meta_object_name": "SHIJIAN-30B",
        "meta_object_id": "2025-266B",
        "meta_epoch": "2025-12-06T13:25:21.995904",
        "meta_mean_motion": 15.15543524,
        "meta_eccentricity": 0.0010535,
        "meta_inclination": 51.798,
        "meta_ra_of_asc_node": 1.8226,
        "meta_arg_of_pericenter": 337.4784,
        "meta_mean_anomaly": 22.5728,
        "meta_ephemeris_type": 0,
        "meta_classification_type": "U",
        "meta_norad_cat_id": 66546,
        "meta_element_set_no": 999,
        "meta_rev_at_epoch": 264,
        "meta_bstar": 0.0010955,
        "meta_mean_motion_dot": 0.00020811,
        "meta_mean_motion_ddot": 0,
        "tle_line1": "1 66546U 25266B   25340.55928236  .00020811  00000+0  10955-2 0  9995",
        "tle_line2": "2 66546  51.7980   1.8226 0010535 337.4784  22.5728 15.15543524  2641"
      },
      "geometry": {
        "type": "Point",
        "coordinates": [
          33.24033579843117,
          35.54451799654773
        ]
      }
    },
    {
      "type": "Feature",
      "properties": {
        "norad_id": 66547,
        "name": "SHIJIAN-30C",
        "group": "last-30-days",
        "lat": 33.04240128913925,
        "lon": 29.821262965833135,
        "alt_km": 512.543046304937,
        "timestamp": "2025-12-07T03:52:31.204017+00:00",
        "meta_object_name": "SHIJIAN-30C",
        "meta_object_id": "2025-266C",
        "meta_epoch": "2025-12-06T13:26:22.165728",
        "meta_mean_motion": 15.15562241,
        "meta_eccentricity": 0.0011392,
        "meta_inclination": 51.7991,
        "meta_ra_of_asc_node": 1.8275,
        "meta_arg_of_pericenter": 329.5845,
        "meta_mean_anomaly": 30.4469,
        "meta_ephemeris_type": 0,
        "meta_classification_type": "U",
        "meta_norad_cat_id": 66547,
        "meta_element_set_no": 999,
        "meta_rev_at_epoch": 264,
        "meta_bstar": 0.00092365,
        "meta_mean_motion_dot": 0.00017503,
        "meta_mean_motion_ddot": 0,
        "tle_line1": "1 66547U 25266C   25340.55997877  .00017503  00000+0  92365-3 0  9993",
        "tle_line2": "2 66547  51.7991   1.8275 0011392 329.5845  30.4469 15.15562241  2647"
      },
      "geometry": {
        "type": "Point",
        "coordinates": [
          29.821262965833135,
          33.04240128913925
        ]
      }
    }
  ]
}